GLOBALSTAR M023 [+]     
1 25621U 99004A   23286.79769448 -.00000125  00000+0 -11630-3 0  9996
2 25621  52.0095 118.0711 0009310 207.0240 165.9418 12.62442488138384
GLOBALSTAR M040 [-]     
1 25622U 99004B   23286.87392319 -.00000022  00000+0  45687-3 0  9999
2 25622  51.9899 121.1012 0001412 102.9464   2.7706 12.61957308138244
GLOBALSTAR M036 [-]     
1 25623U 99004C   23286.61767419 -.00000094  00000+0 -16901-3 0  9996
2 25623  51.9978  54.8457 0010277 323.2196  49.9379 11.86553986106263
GLOBALSTAR M038 [-]     
1 25624U 99004D   23286.55747749 -.00000066  00000+0  24048-3 0  9993
2 25624  51.9995  35.8049 0001677 193.8503 179.9739 12.32485754126834
GLOBALSTAR M022 [-]     
1 25649U 99012A   23286.94415464  .00000000  00000+0  10439-2 0  9993
2 25649  52.0015 155.2154 0003455  48.7390 323.7947 12.02470844102721
GLOBALSTAR M041 [-]     
1 25650U 99012B   23286.54010782 -.00000147  00000+0 -79467-3 0  9996
2 25650  52.0051  19.0853 0002199 178.3525 181.7319 11.96645915104935
GLOBALSTAR M046 [-]     
1 25651U 99012C   23286.82877218 -.00000160  00000+0 -78753-3 0  9995
2 25651  52.0026 128.0122 0003100 101.5224 271.3945 12.09377412109570
GLOBALSTAR M037 [+]     
1 25652U 99012D   23286.62631978 -.00000054  00000+0  27764-3 0  9992
2 25652  51.9995 249.4478 0001415 285.5983 244.8959 12.62385950133963
